start=new Date('2022-03-11T00:00:00.000Z').valueOf();
sats=[{"MEAN_ANOMALY":"291.5909","COUNTRY_CODE":"US","FILE":"3353482","MEAN_MOTION":"15.06422664","RCS_SIZE":"LARGE","EPOCH":"2022-03-10T13:30:39.179808","PERIOD":"95.591","MEAN_MOTION_DDOT":"0.0000000000000","TLE_LINE1":"1 48318U 21036AU  22069.56295347  .00014783  00000-0  10086-2 0  9996","PERIAPSIS":"546.073","REF_FRAME":"TEME","EPHEMERIS_TYPE":"0","APOAPSIS":"548.215","NORAD_CAT_ID":"48318","ECCENTRICITY":"0.00015460","ARG_OF_PERICENTER":"68.5245","OBJECT_NAME":"STARLINK-2509","GP_ID":"198399488","SITE":"AFETR","MEAN_ELEMENT_THEORY":"SGP4","LAUNCH_DATE":"2021-04-29","RA_OF_ASC_NODE":"176.3797","CLASSIFICATION_TYPE":"U","OBJECT_ID":"2021-036AU","TIME_SYSTEM":"UTC","ELEMENT_SET_NO":"999","REV_AT_EPOCH":"4795","BSTAR":"0.00100860000000","TLE_LINE2":"2 48318  53.0539 176.3797 0001546  68.5245 291.5909 15.06422664 47953","DECAY_DATE":null,"SEMIMAJOR_AXIS":"6925.279","MEAN_MOTION_DOT":"0.00014783","CENTER_NAME":"EARTH","OBJECT_TYPE":"PAYLOAD","INCLINATION":"53.0539"},{"MEAN_MOTION_DOT":"0.00002001","INCLINATION":"53.0554","CENTER_NAME":"EARTH","OBJECT_TYPE":"PAYLOAD","REV_AT_EPOCH":"4798","BSTAR":"0.00015324000000","TIME_SYSTEM":"UTC","ELEMENT_SET_NO":"999","DECAY_DATE":null,"SEMIMAJOR_AXIS":"6925.385","TLE_LINE2":"2 48319  53.0554 175.4940 0001371  62.1291 297.9837 15.06388188 47983","LAUNCH_DATE":"2021-04-29","RA_OF_ASC_NODE":"175.4940","MEAN_ELEMENT_THEORY":"SGP4","CLASSIFICATION_TYPE":"U","OBJECT_ID":"2021-036AV","OBJECT_NAME":"STARLINK-2512","ECCENTRICITY":"0.00013710","ARG_OF_PERICENTER":"62.1291","GP_ID":"198437761","SITE":"AFETR","REF_FRAME":"TEME","APOAPSIS":"548.199","NORAD_CAT_ID":"48319","EPHEMERIS_TYPE":"0","PERIAPSIS":"546.300","COUNTRY_CODE":"US","MEAN_ANOMALY":"297.9837","RCS_SIZE":"LARGE","PERIOD":"95.593","MEAN_MOTION_DDOT":"0.0000000000000","EPOCH":"2022-03-10T18:11:57.328224","TLE_LINE1":"1 48319U 21036AV  22069.75830241  .00002001  00000-0  15324-3 0  9997","FILE":"3354091","MEAN_MOTION":"15.06388188"},{"FILE":"3353659","MEAN_MOTION":"15.06403374","EPOCH":"2022-03-10T13:20:00.523104","RCS_SIZE":"LARGE","PERIOD":"95.592","MEAN_MOTION_DDOT":"0.0000000000000","TLE_LINE1":"1 48320U 21036AW  22069.55556161  .00004758  00000-0  33804-3 0  9997","MEAN_ANOMALY":"290.8127","COUNTRY_CODE":"US","PERIAPSIS":"546.237","EPHEMERIS_TYPE":"0","APOAPSIS":"548.169","NORAD_CAT_ID":"48320","REF_FRAME":"TEME","GP_ID":"198406459","SITE":"AFETR","ECCENTRICITY":"0.00013950","ARG_OF_PERICENTER":"69.3011","OBJECT_NAME":"STARLINK-2029","CLASSIFICATION_TYPE":"U","OBJECT_ID":"2021-036AW","MEAN_ELEMENT_THEORY":"SGP4","LAUNCH_DATE":"2021-04-29","RA_OF_ASC_NODE":"176.4155","TLE_LINE2":"2 48320  53.0565 176.4155 0001395  69.3011 290.8127 15.06403374 48598","DECAY_DATE":null,"SEMIMAJOR_AXIS":"6925.338","TIME_SYSTEM":"UTC","ELEMENT_SET_NO":"999","REV_AT_EPOCH":"4859","BSTAR":"0.00033804000000","CENTER_NAME":"EARTH","OBJECT_TYPE":"PAYLOAD","INCLINATION":"53.0565","MEAN_MOTION_DOT":"0.00004758"},{"CLASSIFICATION_TYPE":"U","OBJECT_ID":"2021-036AX","RA_OF_ASC_NODE":"176.4236","LAUNCH_DATE":"2021-04-29","MEAN_ELEMENT_THEORY":"SGP4","SITE":"AFETR","GP_ID":"198406471","OBJECT_NAME":"STARLINK-2457","ARG_OF_PERICENTER":"76.0210","ECCENTRICITY":"0.00014900","INCLINATION":"53.0550","OBJECT_TYPE":"PAYLOAD","CENTER_NAME":"EARTH","MEAN_MOTION_DOT":"0.00002209","SEMIMAJOR_AXIS":"6925.394","DECAY_DATE":null,"TLE_LINE2":"2 48321  53.0550 176.4236 0001490  76.0210 284.0945 15.06385273 48540","BSTAR":"0.00016718000000","REV_AT_EPOCH":"4854","ELEMENT_SET_NO":"999","TIME_SYSTEM":"UTC","TLE_LINE1":"1 48321U 21036AX  22069.55189373  .00002209  00000-0  16718-3 0  9999","PERIOD":"95.593","RCS_SIZE":"LARGE","EPOCH":"2022-03-10T13:14:43.618272","MEAN_MOTION_DDOT":"0.0000000000000","FILE":"3353660","MEAN_MOTION":"15.06385273","COUNTRY_CODE":"US","MEAN_ANOMALY":"284.0945","NORAD_CAT_ID":"48321","APOAPSIS":"548.291","EPHEMERIS_TYPE":"0","REF_FRAME":"TEME","PERIAPSIS":"546.227"},{"REF_FRAME":"TEME","APOAPSIS":"548.246","NORAD_CAT_ID":"48322","EPHEMERIS_TYPE":"0","PERIAPSIS":"546.236","COUNTRY_CODE":"US","MEAN_ANOMALY":"295.2627","PERIOD":"95.593","RCS_SIZE":"MEDIUM","EPOCH":"2022-03-10T14:44:57.126048","MEAN_MOTION_DDOT":"0.0000000000000","TLE_LINE1":"1 48322U 21036AY  22069.61455007  .00002558  00000-0  19058-3 0  9994","FILE":"3354091","MEAN_MOTION":"15.06390984","MEAN_MOTION_DOT":"0.00002558","INCLINATION":"53.0552","CENTER_NAME":"EARTH","OBJECT_TYPE":"PAYLOAD","REV_AT_EPOCH":"4796","BSTAR":"0.00019058000000","TIME_SYSTEM":"UTC","ELEMENT_SET_NO":"999","DECAY_DATE":null,"SEMIMAJOR_AXIS":"6925.376","TLE_LINE2":"2 48322  53.0552 176.1401 0001451  64.8513 295.2627 15.06390984 47963","LAUNCH_DATE":"2021-04-29","RA_OF_ASC_NODE":"176.1401","MEAN_ELEMENT_THEORY":"SGP4","OBJECT_ID":"2021-036AY","CLASSIFICATION_TYPE":"U","OBJECT_NAME":"STARLINK-2477","ECCENTRICITY":"0.00014510","ARG_OF_PERICENTER":"64.8513","GP_ID":"198438506","SITE":"AFETR"},{"ELEMENT_SET_NO":"999","TIME_SYSTEM":"UTC","BSTAR":"0.00015479000000","REV_AT_EPOCH":"4796","TLE_LINE2":"2 48323  53.0544 176.1711 0001712  52.5326 307.5818 15.06392803 47966","SEMIMAJOR_AXIS":"6925.371","DECAY_DATE":null,"MEAN_MOTION_DOT":"0.00002024","OBJECT_TYPE":"PAYLOAD","CENTER_NAME":"EARTH","INCLINATION":"53.0544","ARG_OF_PERICENTER":"52.5326","ECCENTRICITY":"0.00017120","OBJECT_NAME":"STARLINK-2515","SITE":"AFETR","GP_ID":"198437262","MEAN_ELEMENT_THEORY":"SGP4","RA_OF_ASC_NODE":"176.1711","LAUNCH_DATE":"2021-04-29","OBJECT_ID":"2021-036AZ","CLASSIFICATION_TYPE":"U","PERIAPSIS":"546.050","REF_FRAME":"TEME","EPHEMERIS_TYPE":"0","NORAD_CAT_ID":"48323","APOAPSIS":"548.421","MEAN_ANOMALY":"307.5818","COUNTRY_CODE":"US","FILE":"3354091","MEAN_MOTION":"15.06392803","TLE_LINE1":"1 48323U 21036AZ  22069.61085695  .00002024  00000-0  15479-3 0  9998","EPOCH":"2022-03-10T14:39:38.040480","RCS_SIZE":"LARGE","PERIOD":"95.593","MEAN_MOTION_DDOT":"0.0000000000000"},{"ELEMENT_SET_NO":"999","TIME_SYSTEM":"UTC","BSTAR":"0.00020730000000","REV_AT_EPOCH":"4796","TLE_LINE2":"2 48324  53.0531 175.8950 0001676  73.4272 286.6901 15.06390700 47969","SEMIMAJOR_AXIS":"6925.377","DECAY_DATE":null,"MEAN_MOTION_DOT":"0.00002807","OBJECT_TYPE":"PAYLOAD","CENTER_NAME":"EARTH","INCLINATION":"53.0531","ARG_OF_PERICENTER":"73.4272","ECCENTRICITY":"0.00016760","OBJECT_NAME":"STARLINK-2527","SITE":"AFETR","GP_ID":"198437512","MEAN_ELEMENT_THEORY":"SGP4","RA_OF_ASC_NODE":"175.8950","LAUNCH_DATE":"2021-04-29","CLASSIFICATION_TYPE":"U","OBJECT_ID":"2021-036BA","PERIAPSIS":"546.081","REF_FRAME":"TEME","EPHEMERIS_TYPE":"0","NORAD_CAT_ID":"48324","APOAPSIS":"548.403","MEAN_ANOMALY":"286.6901","COUNTRY_CODE":"US","FILE":"3354091","MEAN_MOTION":"15.06390700","TLE_LINE1":"1 48324U 21036BA  22069.67353444  .00002807  00000-0  20730-3 0  9990","MEAN_MOTION_DDOT":"0.0000000000000","RCS_SIZE":"LARGE","PERIOD":"95.593","EPOCH":"2022-03-10T16:09:53.375616"},{"MEAN_ELEMENT_THEORY":"SGP4","LAUNCH_DATE":"2021-04-29","RA_OF_ASC_NODE":"175.9136","OBJECT_ID":"2021-036BB","CLASSIFICATION_TYPE":"U","ECCENTRICITY":"0.00016410","ARG_OF_PERICENTER":"59.3530","OBJECT_NAME":"STARLINK-2495","GP_ID":"198438260","SITE":"AFETR","MEAN_MOTION_DOT":"0.00002003","CENTER_NAME":"EARTH","OBJECT_TYPE":"PAYLOAD","INCLINATION":"53.0530","TIME_SYSTEM":"UTC","ELEMENT_SET_NO":"999","REV_AT_EPOCH":"4797","BSTAR":"0.00015330000000","TLE_LINE2":"2 48325  53.0530 175.9136 0001641  59.3530 300.7621 15.06408001 47970","DECAY_DATE":null,"SEMIMAJOR_AXIS":"6925.324","MEAN_ANOMALY":"300.7621","COUNTRY_CODE":"US","FILE":"3354091","MEAN_MOTION":"15.06408001","RCS_SIZE":"LARGE","PERIOD":"95.592","MEAN_MOTION_DDOT":"0.0000000000000","EPOCH":"2022-03-10T16:04:32.603520","TLE_LINE1":"1 48325U 21036BB  22069.66982180  .00002003  00000-0  15330-3 0  9993","REF_FRAME":"TEME","EPHEMERIS_TYPE":"0","APOAPSIS":"548.325","NORAD_CAT_ID":"48325","PERIAPSIS":"546.053"},{"REF_FRAME":"TEME","EPHEMERIS_TYPE":"0","NORAD_CAT_ID":"48326","APOAPSIS":"548.058","PERIAPSIS":"546.410","MEAN_ANOMALY":"277.0595","COUNTRY_CODE":"US","FILE":"3354091","MEAN_MOTION":"15.06393446","TLE_LINE1":"1 48326U 21036BC  22069.59980171  .00002170  00000-0  16454-3 0  9997","RCS_SIZE":"LARGE","MEAN_MOTION_DDOT":"0.0000000000000","PERIOD":"95.593","EPOCH":"2022-03-10T14:23:42.867744","MEAN_MOTION_DOT":"0.00002170","OBJECT_TYPE":"PAYLOAD","CENTER_NAME":"EARTH","INCLINATION":"53.0552","ELEMENT_SET_NO":"999","TIME_SYSTEM":"UTC","BSTAR":"0.00016454000000","REV_AT_EPOCH":"4796","TLE_LINE2":"2 48326  53.0552 176.2106 0001190  83.0530 277.0595 15.06393446 47960","SEMIMAJOR_AXIS":"6925.369","DECAY_DATE":null,"MEAN_ELEMENT_THEORY":"SGP4","RA_OF_ASC_NODE":"176.2106","LAUNCH_DATE":"2021-04-29","OBJECT_ID":"2021-036BC","CLASSIFICATION_TYPE":"U","ARG_OF_PERICENTER":"83.0530","ECCENTRICITY":"0.00011900","OBJECT_NAME":"STARLINK-2498","SITE":"AFETR","GP_ID":"198439006"},{"MEAN_MOTION_DOT":"0.00004037","INCLINATION":"53.0540","CENTER_NAME":"EARTH","OBJECT_TYPE":"PAYLOAD","REV_AT_EPOCH":"4797","BSTAR":"0.00028985000000","TIME_SYSTEM":"UTC","ELEMENT_SET_NO":"999","DECAY_DATE":null,"SEMIMAJOR_AXIS":"6925.381","TLE_LINE2":"2 48327  53.0540 175.9252 0001417  67.5247 292.5892 15.06389537 47979","LAUNCH_DATE":"2021-04-29","RA_OF_ASC_NODE":"175.9252","MEAN_ELEMENT_THEORY":"SGP4","OBJECT_ID":"2021-036BD","CLASSIFICATION_TYPE":"U","OBJECT_NAME":"STARLINK-2502","ECCENTRICITY":"0.00014170","ARG_OF_PERICENTER":"67.5247","GP_ID":"198437762","SITE":"AFETR","REF_FRAME":"TEME","APOAPSIS":"548.227","NORAD_CAT_ID":"48327","EPHEMERIS_TYPE":"0","PERIAPSIS":"546.264","COUNTRY_CODE":"US","MEAN_ANOMALY":"292.5892","PERIOD":"95.593","RCS_SIZE":"LARGE","MEAN_MOTION_DDOT":"0.0000000000000","EPOCH":"2022-03-10T15:53:57.827904","TLE_LINE1":"1 48327U 21036BD  22069.66247486  .00004037  00000-0  28985-3 0  9997","FILE":"3354091","MEAN_MOTION":"15.06389537"}];
